OBJECT_NAME,OBJECT_ID,EPOCH,MEAN_MOTION,ECCENTRICITY,INCLINATION,RA_OF_ASC_NODE,ARG_OF_PERICENTER,MEAN_ANOMALY,EPHEMERIS_TYPE,CLASSIFICATION_TYPE,NORAD_CAT_ID,ELEMENT_SET_NO,REV_AT_EPOCH,BSTAR,MEAN_MOTION_DOT,MEAN_MOTION_DDOT
STARLINK-6323,2023-065X,2024-11-29T01:14:12.672384,15.02529628,.0000818,43.0031,220.2278,291.0383,69.0372,0,U,56524,999,8580,.75613E-4,.818E-5,0
STARLINK-6329,2023-065Y,2024-11-28T16:53:12.135552,15.02537007,.0001407,43.0025,221.9282,289.2882,70.7808,0,U,56525,999,8653,.31237E-3,.4018E-4,0
STARLINK-6317,2023-065Z,2024-11-29T01:04:37.040160,15.02536039,.000144,43.0023,220.1794,262.8778,97.1901,0,U,56526,999,8580,.7536E-4,.814E-5,0
STARLINK-6335,2023-065AA,2024-11-28T00:57:30.415968,15.02533345,.0001156,43.0035,225.5367,262.4942,97.5769,0,U,56527,999,8643,.12921E-4,-.29E-6,0
STARLINK-6337,2023-065AB,2024-11-29T02:32:20.774400,15.02538827,.0001336,43.0043,219.7777,284.5578,75.5116,0,U,56528,999,8581,.46302E-4,.422E-5,0
STARLINK-6307,2023-065AC,2024-11-28T16:42:32.087808,15.02536490,.0001112,43.0036,209.7121,283.4666,76.6053,0,U,56529,999,8667,.17367E-3,.2143E-4,0
STARLINK-6318,2023-065AD,2024-11-28T16:25:19.261344,15.02539517,.0001113,43.0022,196.6024,254.1182,105.9537,0,U,56530,999,8682,.83705E-4,.927E-5,0
STARLINK-6280,2023-065AE,2024-11-28T08:39:06.068160,15.02538152,.0001759,43.0050,211.4919,262.6973,97.3669,0,U,56531,999,8662,.63453E-4,.654E-5,0
STARLINK-6319,2023-065AF,2024-11-28T08:53:29.505696,15.02536419,.0000736,43.0014,211.5701,284.9336,75.1425,0,U,56532,999,8662,.33781E-4,.253E-5,0
STARLINK-6310,2023-065AG,2024-11-29T00:26:47.579136,15.02536658,.0001292,43.0036,207.8305,258.1588,101.9109,0,U,56533,999,8594,.10688E-3,.124E-4,0
STARLINK-6308,2023-065AH,2024-11-28T16:47:20.101344,15.02541130,.0001321,43.0030,209.7379,279.5691,80.5002,0,U,56534,999,8667,.25296E-3,.3215E-4,0
STARLINK-6309,2023-065AJ,2024-11-29T02:01:47.470944,15.02532370,.0001458,43.0045,233.5026,273.6633,86.4043,0,U,56535,999,8565,.12878E-3,.1536E-4,0
STARLINK-6312,2023-065AK,2024-11-29T02:03:22.426272,15.02542906,.000156,43.0021,233.5097,257.0119,103.0549,0,U,56536,999,8565,.95219E-4,.1083E-4,0
STARLINK-6311,2023-065AL,2024-11-29T01:56:59.489376,15.02535660,.0001165,43.0015,233.4713,266.7462,93.3247,0,U,56537,999,8565,.79164E-4,.866E-5,0
STARLINK-6314,2023-065AM,2024-11-29T01:11:20.355360,15.02558197,.000128,43.0022,207.2065,280.9779,79.0920,0,U,56538,999,8595,.27964E-3,.3578E-4,0
STARLINK-6135,2023-065AN,2024-11-29T01:42:35.564544,15.02567462,.0002179,43.0033,233.4026,288.8182,71.2424,0,U,56539,999,8565,-.54169E-3,-.752E-4,0
STARLINK-6136,2023-065AP,2024-11-29T02:08:10.859712,15.02534990,.0001616,43.0002,233.5269,270.7608,89.3049,0,U,56540,999,8565,.16572E-3,.2036E-4,0
STARLINK-6249,2023-065AQ,2024-11-28T19:16:29.656128,15.02542514,.0001494,43.0032,234.8250,256.6746,103.3930,0,U,56541,999,8639,.12688E-3,.1511E-4,0
STARLINK-6266,2023-065AR,2024-11-29T01:47:24.274464,15.02534202,.0000998,43.0030,233.4207,272.0257,88.0471,0,U,56542,999,8565,.10952E-4,-.56E-6,0
STARLINK-6228,2023-065AS,2024-11-28T11:08:16.146528,15.02533761,.0001201,43.0045,236.5773,269.9521,90.1184,0,U,56543,999,8634,.1148E-3,.1347E-4,0
STARLINK-6226,2023-065AT,2024-11-29T01:44:12.507936,15.02532510,.0001318,43.0027,233.4043,272.1203,87.9488,0,U,56544,999,8565,.10132E-3,.1165E-4,0
STARLINK-6086,2023-065AU,2024-11-28T11:01:52.287744,15.02546824,.0001012,42.9991,236.5487,266.1346,93.9381,0,U,56545,999,8556,.27601E-3,.3528E-4,0
STARLINK-6187,2023-065AV,2024-11-29T03:10:18.783840,15.02554521,.0001417,43.0034,232.9952,272.0397,88.0283,0,U,56546,999,8566,.36049E-3,.4672E-4,0
STARLINK-6291,2023-065AW,2024-11-28T10:58:40.500480,15.02536107,.000132,43.0022,236.5276,268.7078,91.3613,0,U,56547,999,8634,.30836E-4,.213E-5,0
STARLINK-6244,2023-065AX,2024-11-29T01:28:12.908064,15.02541731,.0001463,43.0036,233.3205,265.7199,94.3476,0,U,56548,999,8565,.91957E-4,.1039E-4,0
STARLINK-6263,2023-065AY,2024-11-28T10:44:17.175264,15.02543299,.0000793,43.0024,236.4551,282.9631,77.1123,0,U,56549,999,8634,.12136E-3,.1437E-4,0
STARLINK-6255,2023-065AZ,2024-11-28T10:57:04.464288,15.02533215,.0001464,43.0032,236.5206,265.6837,94.3838,0,U,56550,999,8634,-.58553E-4,-.994E-5,0
STARLINK-6199,2023-065BA,2024-11-28T10:37:53.180832,15.02544153,.0001164,43.0006,236.4219,276.2531,83.8179,0,U,56551,999,8634,.7259E-4,.777E-5,0
STARLINK-5802,2023-065BB,2024-11-28T10:47:29.250240,15.02537211,.0001437,43.0061,236.4716,272.9462,87.1216,0,U,56552,999,8556,.24357E-3,.3088E-4,0
STARLINK-6074,2023-065BC,2024-11-28T23:18:55.541952,15.02547178,.000139,43.0022,233.5060,258.0930,101.9756,0,U,56553,999,8564,.54197E-3,.7127E-4,0
