STARLINK-6323           
1 56524U 23065X   24334.05153556  .00000818  00000+0  75613-4 0  9996
2 56524  43.0031 220.2278 0000818 291.0383  69.0372 15.02529628 85809
STARLINK-6329           
1 56525U 23065Y   24333.70361268  .00004018  00000+0  31237-3 0  9998
2 56525  43.0025 221.9282 0001407 289.2882  70.7808 15.02537007 86538
STARLINK-6317           
1 56526U 23065Z   24334.04487315  .00000814  00000+0  75360-4 0  9995
2 56526  43.0023 220.1794 0001440 262.8778  97.1901 15.02536039 85804
STARLINK-6335           
1 56527U 23065AA  24333.03993537 -.00000029  00000+0  12921-4 0  9995
2 56527  43.0035 225.5367 0001156 262.4942  97.5769 15.02533345 86439
STARLINK-6337           
1 56528U 23065AB  24334.10579600  .00000422  00000+0  46302-4 0  9992
2 56528  43.0043 219.7777 0001336 284.5578  75.5116 15.02538827 85812
STARLINK-6307           
1 56529U 23065AC  24333.69620472  .00002143  00000+0  17367-3 0  9990
2 56529  43.0036 209.7121 0001112 283.4666  76.6053 15.02536490 86676
STARLINK-6318           
1 56530U 23065AD  24333.68425071  .00000927  00000+0  83705-4 0  9997
2 56530  43.0022 196.6024 0001113 254.1182 105.9537 15.02539517 86821
STARLINK-6280           
1 56531U 23065AE  24333.36048690  .00000654  00000+0  63453-4 0  9996
2 56531  43.0050 211.4919 0001759 262.6973  97.3669 15.02538152 86622
STARLINK-6319           
1 56532U 23065AF  24333.37048039  .00000253  00000+0  33781-4 0  9991
2 56532  43.0014 211.5701 0000736 284.9336  75.1425 15.02536419 86625
STARLINK-6310           
1 56533U 23065AG  24334.01860624  .00001240  00000+0  10688-3 0  9993
2 56533  43.0036 207.8305 0001292 258.1588 101.9109 15.02536658 85944
STARLINK-6308           
1 56534U 23065AH  24333.69953821  .00003215  00000+0  25296-3 0  9994
2 56534  43.0030 209.7379 0001321 279.5691  80.5002 15.02541130 86672
STARLINK-6309           
1 56535U 23065AJ  24334.08457721  .00001536  00000+0  12878-3 0  9993
2 56535  43.0045 233.5026 0001458 273.6633  86.4043 15.02532370 85658
STARLINK-6312           
1 56536U 23065AK  24334.08567623  .00001083  00000+0  95219-4 0  9995
2 56536  43.0021 233.5097 0001560 257.0119 103.0549 15.02542906 85653
STARLINK-6311           
1 56537U 23065AL  24334.08124409  .00000866  00000+0  79164-4 0  9996
2 56537  43.0015 233.4713 0001165 266.7462  93.3247 15.02535660 85655
STARLINK-6314           
1 56538U 23065AM  24334.04954115  .00003578  00000+0  27964-3 0  9991
2 56538  43.0022 207.2065 0001280 280.9779  79.0920 15.02558197 85952
STARLINK-6135           
1 56539U 23065AN  24334.07124496 -.00007520  00000+0 -54169-3 0  9996
2 56539  43.0033 233.4026 0002179 288.8182  71.2424 15.02567462 85651
STARLINK-6136           
1 56540U 23065AP  24334.08901458  .00002036  00000+0  16572-3 0  9991
2 56540  43.0002 233.5269 0001616 270.7608  89.3049 15.02534990 85650
STARLINK-6249           
1 56541U 23065AQ  24333.80312102  .00001511  00000+0  12688-3 0  9994
2 56541  43.0032 234.8250 0001494 256.6746 103.3930 15.02542514 86397
STARLINK-6266           
1 56542U 23065AR  24334.07458651 -.00000056  00000+0  10952-4 0  9992
2 56542  43.0030 233.4207 0000998 272.0257  88.0471 15.02534202 85652
STARLINK-6228           
1 56543U 23065AS  24333.46407577  .00001347  00000+0  11480-3 0  9995
2 56543  43.0045 236.5773 0001201 269.9521  90.1184 15.02533761 86349
STARLINK-6226           
1 56544U 23065AT  24334.07236699  .00001165  00000+0  10132-3 0  9990
2 56544  43.0027 233.4043 0001318 272.1203  87.9488 15.02532510 85653
STARLINK-6086           
1 56545U 23065AU  24333.45963296  .00003528  00000+0  27601-3 0  9996
2 56545  42.9991 236.5487 0001012 266.1346  93.9381 15.02546824 85562
STARLINK-6187           
1 56546U 23065AV  24334.13216185  .00004672  00000+0  36049-3 0  9998
2 56546  43.0034 232.9952 0001417 272.0397  88.0283 15.02554521 85661
STARLINK-6291           
1 56547U 23065AW  24333.45741320  .00000213  00000+0  30836-4 0  9993
2 56547  43.0022 236.5276 0001320 268.7078  91.3613 15.02536107 86349
STARLINK-6244           
1 56548U 23065AX  24334.06126051  .00001039  00000+0  91957-4 0  9998
2 56548  43.0036 233.3205 0001463 265.7199  94.3476 15.02541731 85653
STARLINK-6263           
1 56549U 23065AY  24333.44742101  .00001437  00000+0  12136-3 0  9993
2 56549  43.0024 236.4551 0000793 282.9631  77.1123 15.02543299 86342
STARLINK-6255           
1 56550U 23065AZ  24333.45630167 -.00000994  00000+0 -58553-4 0  9997
2 56550  43.0032 236.5206 0001464 265.6837  94.3838 15.02533215 86344
STARLINK-6199           
1 56551U 23065BA  24333.44297663  .00000777  00000+0  72590-4 0  9991
2 56551  43.0006 236.4219 0001164 276.2531  83.8179 15.02544153 86349
STARLINK-5802           
1 56552U 23065BB  24333.44964410  .00003088  00000+0  24357-3 0  9998
2 56552  43.0061 236.4716 0001437 272.9462  87.1216 15.02537211 85561
STARLINK-6074           
1 56553U 23065BC  24333.97147618  .00007127  00000+0  54197-3 0  9993
2 56553  43.0022 233.5060 0001390 258.0930 101.9756 15.02547178 85648
